{"type":"Topology","arcs":[[[164,501],[-20,-44],[-40,-80],[0,-30],[-6,-29],[-40,-22],[-23,-10],[8,68],[13,56],[25,51],[74,166],[9,32],[8,19],[15,-5],[2,-26],[-20,-43],[-14,-35],[-2,-31],[11,-37]],[[128,382],[42,-33],[12,-42],[38,-58],[35,26],[28,-67],[6,-45],[-27,-7],[-12,-9],[-9,-10],[-13,-18],[-2,-20],[14,-31],[9,-40],[-22,-11],[-9,14],[-21,1],[-23,0],[-9,-14],[-14,-7],[-71,-11],[-25,3],[-12,19],[17,9],[4,14],[-10,16],[-39,18],[-15,32],[6,42],[19,23],[17,34],[-4,29],[1,2],[19,25],[7,13],[11,8],[15,11],[17,9],[16,35],[4,40]]],"transform":{"scale":[0.0006519931107266822,0.0004544814601770535],"translate":[-74.03998974599995,40.569370426000035]},"objects":{"ne_10m_admin_2_counties":{"type":"GeometryCollection","geometries":[{"arcs":[[0]],"type":"Polygon","properties":{"FEATURECLA":"Admin-2 scale rank","SCALERANK":0,"ADM2_CODE":"USA-36061","ISO_3166_2":"US-36","ISO_A2":"US","ADM0_SR":1,"NAME":"New York","NAME_ALT":"New York County","NAME_LOCAL":"","TYPE":"County","TYPE_EN":"County","CODE_LOCAL":"36061","REGION":"NY","REGION_COD":"36","ABBREV":"","AREA_SQKM":49,"SAMEASCITY":1,"LABELRANK":0,"NAME_LEN":8,"MAPCOLOR9":1,"MAPCOLOR13":1,"FIPS":"US36061","SOV_A3":"US1","ADM0_A3":"USA","ADM0_LABEL":2,"ADMIN":"United States of America","GEONUNIT":"United States of America","GU_A3":"USA","MIN_LABEL":8,"MAX_LABEL":10,"MIN_ZOOM":6.6,"WIKIDATAID":"Q500416","NE_ID":1730096645,"latitude":40.775919,"longitude":-73.969166,"NAME_AR":"","NAME_BN":"","NAME_DE":"New York","NAME_EL":"","NAME_EN":"New York","NAME_ES":"Nueva York","NAME_FA":"","NAME_FR":"New York","NAME_HE":"","NAME_HI":"","NAME_HU":"","NAME_ID":"","NAME_IT":"New York","NAME_JA":"ニュー・ヨーク郡","NAME_KO":"","NAME_NL":"New York","NAME_PL":"","NAME_PT":"","NAME_RU":"Нью-Йорк","NAME_SV":"","NAME_TR":"","NAME_UK":"","NAME_UR":"","NAME_VI":"","NAME_ZH":"纽约县","NAME_ZHT":"纽约县"}},{"arcs":[[1]],"type":"Polygon","properties":{"FEATURECLA":"Admin-2 scale rank","SCALERANK":0,"ADM2_CODE":"USA-36047","ISO_3166_2":"US-36","ISO_A2":"US","ADM0_SR":1,"NAME":"Kings","NAME_ALT":"Kings County","NAME_LOCAL":"","TYPE":"County","TYPE_EN":"County","CODE_LOCAL":"36047","REGION":"NY","REGION_COD":"36","ABBREV":"","AREA_SQKM":179,"SAMEASCITY":1,"LABELRANK":0,"NAME_LEN":5,"MAPCOLOR9":1,"MAPCOLOR13":1,"FIPS":"US36047","SOV_A3":"US1","ADM0_A3":"USA","ADM0_LABEL":2,"ADMIN":"United States of America","GEONUNIT":"United States of America","GU_A3":"USA","MIN_LABEL":8,"MAX_LABEL":10,"MIN_ZOOM":6.6,"WIKIDATAID":"Q18419","NE_ID":1730096643,"latitude":40.643605,"longitude":-73.949757,"NAME_AR":"بروكلين","NAME_BN":"ব্রুকলিন","NAME_DE":"Brooklyn","NAME_EL":"Μπρούκλιν","NAME_EN":"Brooklyn","NAME_ES":"Brooklyn","NAME_FA":"بروکلین","NAME_FR":"Brooklyn","NAME_HE":"ברוקלין","NAME_HI":"ब्रुकलीन","NAME_HU":"Brooklyn","NAME_ID":"Brooklyn","NAME_IT":"Brooklyn","NAME_JA":"ブルックリン区","NAME_KO":"브루클린","NAME_NL":"Brooklyn","NAME_PL":"Brooklyn","NAME_PT":"Brooklyn","NAME_RU":"Бруклин","NAME_SV":"Brooklyn","NAME_TR":"Brooklyn","NAME_UK":"Бруклін","NAME_UR":"بروکلن، نیویارک","NAME_VI":"Brooklyn","NAME_ZH":"布魯克林區","NAME_ZHT":"布魯克林區"}}]}}}